#dP2020  9 14  0  0  0.00000000      96 __u+U IGS14 FIT  IAC
## 2123  86400.00000000   900.00000000 59106 0.0000000000000
+  118   C01C02C03C05C06C07C08C09C10C11C12C13C14C16C19C20C21
+        C22C23C24C25C26C27C28C29C30C32C33C34C35C36C37C38C39
+        C40C43C44C45C46E01E02E03E04E05E07E08E09E11E12E13E14
+        E15E18E19E21E24E25E26E27E30E31E33E36G01G02G03G04G05
+        G06G07G08G09G10G11G12G13G15G16G17G18G19G20G21G22G24
+        G25G26G27G28G29G30G31G32J01J02J03R01R02R03R04R05R07
+        R08R11R12R13R14R15R16R17R18R19R20R21R22R23R24R26  0
++        13 13 14 12  8  8  8  8  8  7  7  7  7  8  7  7  7
++         7  8  7  8  7  7  8  7  7  8  7  7  7  8  8 12 11
++        10 10  8  9  9  4  4  4  4  4  4  4  4  4  4  4  4
++         4  4  4  4  4  4  4  4  4  4  4  4  3  3  3  3  3
++         3  3  3  3  3  3  3  4  3  3  3  3  3  3  3  3  3
++         3  3  3  3  3  3  3  3 10  9 10  6  5  5  5  5  5
++         5  5  5  6  5  5  6  5  5  6  6  5  6  5  5  8  0
%c M  cc GPS ccc cccc cccc cccc cccc ccccc ccccc ccccc ccccc
%c cc cc ccc ccc cccc cccc cccc cccc ccccc ccccc ccccc ccccc
%f  1.2500000  1.025000000  0.00000000000  0.000000000000000
%f  0.0000000  0.000000000  0.00000000000  0.000000000000000
%i    0    0    0    0      0      0      0      0         0
%i    0    0    0    0      0      0      0      0         0
/* INFORMATION & ANALYSIS CENTER (IAC)            FINAL DATA
/* S/V CLOCKS ARE ALIGNED TO GNSS TIME                      
/* G:C1WC2W R:C1PC2P E:C1XC5X C:C2IC6I J:C1CC2S             
/* PCV:IGS14_2118 OL/AL:FES2004  NONE     YN ORB:CoN CLK:CoN
*  2020 09 14  5 15  0.00000000
PC01 -34274.884125  24496.540741   -562.297907   -140.152012
PC02   4385.275750  41951.171139    917.102188    838.356825
PC03 -14860.491708  39455.964051   1109.311023 999999.999999
PC05  21884.686835  36034.905220   1071.042974   -242.294596
PC06 -18067.928432  37990.819946   5699.113601     -4.587971
PC07 -10047.405443  25678.005036 -31549.525065    -10.728884
PC08 -23064.384189  21581.943941  27813.795394   -523.538890
PC09  -9388.075889  40232.728234  -9152.448756    808.814595
PC10   4052.039638  32808.872373 -25707.880231   -187.281543
PC11    115.901748  21544.296159  17759.345155   -619.564388
PC12 -13661.454722  24249.294789   1751.853022    509.493305
PC13  -7534.036428  24096.206468  33780.418419    646.199856
PC14  10181.307421  25477.590998   4945.661626    276.822965
PC16 -14944.251847  39499.862654   1692.387271   -589.362292
PC19 -15966.479115 -22484.656026   4355.475575    545.539723
PC20  -3853.833134 -24694.390546 -12436.203314   -843.039980
PC21 -11128.479961  12183.481539  22512.194224   -677.786410
PC22 -19102.449831  -7233.809383  19024.309892   -765.680555
PC23  27773.070220   2081.350017  -1715.750022   -863.236331
PC24  -3089.660605  16044.559234 -22615.911193   -728.379481
PC25  18361.462118  12246.911883 -17085.090777   -756.149894
PC26 -20841.742875  10669.709160 -15159.684339    829.526680
PC27  18402.702452 -19616.152968   7398.553690    398.630830
PC28  18585.446657  -2762.804441  20638.602913   -170.504650
PC29  -8481.522047 -15345.892637 -21717.470347    283.591483
PC30   6801.610680 -25235.468447  -9764.137187    375.456271
PC32  11032.567241 -12286.304507 -22489.776312   -902.690144
PC33  16025.973401  22434.046489  -4250.674569   -797.501356
PC34  -6454.126289  25157.711915  10221.036790   -855.155567
PC35 -18469.713632   3143.466924 -20693.022539   -655.084646
PC36 -17816.678439 -12797.794832  17285.843570   -923.346598
PC37  21643.197110  -9825.638811  14658.810360   -927.356584
PC38 -19736.300801  24178.671905  28275.186917    100.344557
PC39 -11949.962505  40474.962556   1351.148878     22.354994
PC40   1272.224515  30189.765841 -29308.353029     80.950559
PC43   8203.394990  15761.493656  21516.233715   -371.802632
PC44 -17875.809594  20067.935041  -7571.640459   -220.850147
PC45 -27773.138812  -1996.809842   1735.408836 999999.999999
PC46   2339.932942 -15996.590177  22764.902567    639.878626
PE01  -9590.459619  13519.718444 -24514.348447   -940.380119
PE02   9488.090484 -13587.015777  24534.184073    161.504645
PE03   8286.742807 -25018.205167 -13496.649838   -342.644015
PE04   4611.412291  28901.090827  -4414.082187   -606.715645
PE05  16499.925502  -6390.979475 -23730.967058   -346.277784
PE07 -15011.358005 -15817.452100  20025.901302   -435.793660
PE08  -4925.758362 -28819.694940   4675.752933   6120.925121
PE09  15024.458498  15585.770810 -20177.719356   5931.509735
PE11  18621.233497   5318.606861  22373.902862   5495.632986
PE12   -443.193019  18504.964846  23097.111825   5606.496791
PE13 -18402.656946  -5413.108602 -22541.023074    403.656843
PE14   6690.106834  18389.956925  13507.744440  -1155.147897
PE15    221.565416 -18369.843276 -23207.708108    852.574034
PE18 -14224.316512 -18388.404296 -22645.633159  -1262.433881
PE19  -9468.572806  23529.044101  15262.127641     78.003857
PE21 -24726.845149   -395.569415 -16263.333864   -621.309626
PE24  25569.076493  14787.077485  -2057.025887   5245.089078
PE25  24790.962714    493.359778  16176.872340   -516.590762
PE26 -26296.245269  10902.658753  -8089.346045   2728.581645
PE27 -25789.792547 -14432.609713   1672.089575    134.528242
PE30 -11058.491266 -19984.113441  18825.512952   3586.150753
PE31  11716.511180  19901.448698 -18497.083277   -474.119621
PE33 -18704.387467  20527.006556  10242.125929   -462.812777
PE36  26210.177338 -10719.254002   8630.720623    507.718648
PG01   1275.088495 -15665.383417 -21593.804708     36.039322
PG02 -20127.583194  15260.162072   8800.907019   -516.171019
PG03  -8736.334014 -20706.953104 -14314.817545   -298.542287
PG04   -446.133149 -25100.450732   8621.559523   -135.704793
PG05 -10926.275429  10801.975371  21521.519744    -21.058375
PG06 -25563.075359   5357.297365  -4881.435910   -325.465936
PG07 -16667.739158  -8847.944579  19200.462454   -372.083007
PG08   6066.751060 -25620.731609   2164.227358    -47.905230
PG09  -9467.019589 -17571.608931  17459.117653   -285.728245
PG10  22407.216371   9462.487090 -10876.076192   -454.106971
PG11   7698.215007 -22371.652089 -12886.055635   -164.882033
PG12   5989.621994  20908.103545 -15580.510812     67.476343
PG13 -13309.515216  21166.786233   8670.897866     45.100597
PG15  -2926.737508  26159.059835    977.010247   -203.812035
PG16   9930.588275 -10943.170717  21836.869879   -208.857069
PG17 -14879.648455    281.952647 -21570.138321    325.630739
PG18  17042.871867   8153.920393  18673.818822    289.806087
PG19 -16204.454678   7768.471649 -19828.384990   -105.149024
PG20  21889.542724  15237.317336   1055.894211    526.741778
PG21  22029.884567 -13303.568033  -5157.871809     46.908376
PG22  -1900.075387 -18567.775742 -18752.761852   -754.624517
PG24  -3676.884520  17378.036065 -19844.173322    -18.532165
PG25  16264.019058  20205.335527  -6565.460593     48.844091
PG26  19576.051466   -913.779311  17999.097441    278.483790
PG27  12276.817836 -19787.763641  12307.355886   -395.139896
PG28 -20954.737196 -10214.204920 -12000.217705    678.974450
PG29   5408.656043  20515.086622  15909.819441   -194.330840
PG30 -23722.958280  -1918.694505  12061.838933   -301.388622
PG31  25962.324324  -6085.275084  -2839.730959    -68.579759
PG32  15582.393798  -1562.204368 -21350.540659    346.008945
PJ01 -24802.192011  24779.211687  28345.703188   -347.290255
PJ02 -29382.618758  14353.705785 -22125.764824     -3.664169
PJ03 -25044.410796  32203.610569  -5992.216781     -1.106870
PR01 -12721.197905 -18342.037350  12355.792708     67.531483
PR02 -10705.522134   2302.128349  23072.178140    445.512444
PR03  -2434.787574  18774.917838  17159.115026     21.986481
PR04   7190.006797  24423.410023   1642.010912     54.493609
PR05  12658.676722  16449.141781 -14837.561691     57.539032
PR07   2095.305383 -19132.490097 -16684.519425    -40.088933
PR08  -7214.751292 -24406.822519  -1523.048176    -54.544402
PR11 -10004.919880 -12044.167365  20176.302775    -37.584938
PR12 -22924.305814  -8342.924265   7459.081037    163.633882
PR13 -23422.941890    329.952409 -10111.414888    -43.836225
PR14  -9916.591307   8679.924112 -21823.789919     55.521207
PR15   9042.620259  11937.270654 -20620.176733    106.978854
PR16  23474.561365   7631.903297  -6686.867995     -6.300800
PR17 -15553.425880  19826.357995   3798.314620    357.959917
PR18  -4384.382027  17130.512543  18414.483283     49.303970
PR19   8648.518608   5925.643742  23250.757588   -111.106778
PR20  18635.113741 -10608.692145  13793.284028   -421.734858
PR21  15159.181800 -19963.833018  -4831.048057   -152.043118
PR22   3421.356114 -16422.260729 -19199.427793    -72.799111
PR23 -13578.842202    509.419727 -21596.041057    331.842566
PR24 -18856.096152  11144.091251 -13040.788420     13.229769
PR26  17013.947346  -6815.122182  17766.829312   -362.143525
EOF
